[{"OBJECT_NAME":"STARLINK-36716","OBJECT_ID":"2026-025G","EPOCH":"2026-03-09T19:40:52.936032","MEAN_MOTION":15.75199343,"ECCENTRICITY":0.00021365,"INCLINATION":97.2827,"RA_OF_ASC_NODE":180.4527,"ARG_OF_PERICENTER":62.9251,"MEAN_ANOMALY":297.2232,"EPHEMERIS_TYPE":0,"CLASSIFICATION_TYPE":"U","NORAD_CAT_ID":67699,"ELEMENT_SET_NO":999,"REV_AT_EPOCH":597,"BSTAR":0.0015392519,"MEAN_MOTION_DOT":0.00236019,"MEAN_MOTION_DDOT":0},{"OBJECT_NAME":"WT 1A","OBJECT_ID":"2019-032F","EPOCH":"2026-03-09T22:33:15.206112","MEAN_MOTION":15.7566877,"ECCENTRICITY":0.00079486,"INCLINATION":44.975,"RA_OF_ASC_NODE":76.6684,"ARG_OF_PERICENTER":87.7,"MEAN_ANOMALY":272.4811,"EPHEMERIS_TYPE":0,"CLASSIFICATION_TYPE":"U","NORAD_CAT_ID":44315,"ELEMENT_SET_NO":999,"REV_AT_EPOCH":37389,"BSTAR":0.0012390673,"MEAN_MOTION_DOT":0.00199702,"MEAN_MOTION_DDOT":0}]
